[{"OBJECT_NAME":"JY1SAT (JO-97)","OBJECT_ID":"2018-099AX","EPOCH":"2026-03-09T16:28:19.890048","MEAN_MOTION":15.30302629,"ECCENTRICITY":0.00047232,"INCLINATION":97.4249,"RA_OF_ASC_NODE":131.3625,"ARG_OF_PERICENTER":256.6795,"MEAN_ANOMALY":103.3919,"EPHEMERIS_TYPE":0,"CLASSIFICATION_TYPE":"U","NORAD_CAT_ID":43803,"ELEMENT_SET_NO":999,"REV_AT_EPOCH":39839,"BSTAR":0.00060804308,"MEAN_MOTION_DOT":0.00017774,"MEAN_MOTION_DDOT":0},{"OBJECT_NAME":"STARLINK-34901","OBJECT_ID":"2025-176K","EPOCH":"2026-03-09T22:52:38.258976","MEAN_MOTION":15.30203085,"ECCENTRICITY":0.00013849,"INCLINATION":53.1597,"RA_OF_ASC_NODE":151.3019,"ARG_OF_PERICENTER":78.3427,"MEAN_ANOMALY":281.7729,"EPHEMERIS_TYPE":0,"CLASSIFICATION_TYPE":"U","NORAD_CAT_ID":65207,"ELEMENT_SET_NO":999,"REV_AT_EPOCH":3316,"BSTAR":0.0010129877,"MEAN_MOTION_DOT":0.00029766,"MEAN_MOTION_DDOT":0}]
